start=new Date('2022-08-24T00:00:00.000Z').valueOf();
sats=[{"RCS_SIZE":"LARGE","LAUNCH_DATE":"2021-02-16","TLE_LINE1":"1 47656U 21012AN  22235.86608278  .00002000  00000-0  15315-3 0  9993","GP_ID":"210860563","ARG_OF_PERICENTER":"77.0178","ECCENTRICITY":"0.00015090","PERIOD":"95.593","DECAY_DATE":null,"NORAD_CAT_ID":"47656","REV_AT_EPOCH":"8525","EPOCH":"2022-08-23T20:47:09.552192","MEAN_MOTION_DOT":"0.00002000","MEAN_ANOMALY":"283.0979","TLE_LINE2":"2 47656  53.0546  99.8279 0001509  77.0178 283.0979 15.06393095 85251","FILE":"3545624","OBJECT_TYPE":"PAYLOAD","MEAN_MOTION":"15.06393095","EPHEMERIS_TYPE":"0","COUNTRY_CODE":"US","CLASSIFICATION_TYPE":"U","RA_OF_ASC_NODE":"99.8279","OBJECT_NAME":"STARLINK-2040","OBJECT_ID":"2021-012AN","CENTER_NAME":"EARTH","MEAN_ELEMENT_THEORY":"SGP4","ELEMENT_SET_NO":"999","APOAPSIS":"548.280","PERIAPSIS":"546.190","REF_FRAME":"TEME","TIME_SYSTEM":"UTC","SITE":"AFETR","INCLINATION":"53.0546","SEMIMAJOR_AXIS":"6925.370","MEAN_MOTION_DDOT":"0.0000000000000","BSTAR":"0.00015315000000"},{"TIME_SYSTEM":"UTC","INCLINATION":"53.0530","SITE":"AFETR","MEAN_MOTION_DDOT":"0.0000000000000","BSTAR":"0.00011856000000","SEMIMAJOR_AXIS":"6925.342","CLASSIFICATION_TYPE":"U","RA_OF_ASC_NODE":"119.8026","OBJECT_ID":"2021-012AP","OBJECT_NAME":"STARLINK-2041","ELEMENT_SET_NO":"999","CENTER_NAME":"EARTH","MEAN_ELEMENT_THEORY":"SGP4","PERIAPSIS":"546.210","APOAPSIS":"548.204","REF_FRAME":"TEME","OBJECT_TYPE":"PAYLOAD","FILE":"3545624","MEAN_MOTION_DOT":"0.00001485","MEAN_ANOMALY":"279.9987","TLE_LINE2":"2 47657  53.0530 119.8026 0001440  80.1164 279.9987 15.06402095 84974","MEAN_MOTION":"15.06402095","EPHEMERIS_TYPE":"0","COUNTRY_CODE":"US","LAUNCH_DATE":"2021-02-16","TLE_LINE1":"1 47657U 21012AP  22235.87161168  .00001485  00000-0  11856-3 0  9999","RCS_SIZE":"LARGE","GP_ID":"210860806","ARG_OF_PERICENTER":"80.1164","PERIOD":"95.592","ECCENTRICITY":"0.00014400","REV_AT_EPOCH":"8497","NORAD_CAT_ID":"47657","EPOCH":"2022-08-23T20:55:07.249152","DECAY_DATE":null},{"TIME_SYSTEM":"UTC","SEMIMAJOR_AXIS":"6925.429","BSTAR":"0.00046055000000","MEAN_MOTION_DDOT":"0.0000000000000","SITE":"AFETR","INCLINATION":"53.0553","OBJECT_NAME":"STARLINK-2042","OBJECT_ID":"2021-012AQ","RA_OF_ASC_NODE":"119.8384","CLASSIFICATION_TYPE":"U","REF_FRAME":"TEME","PERIAPSIS":"546.031","APOAPSIS":"548.558","MEAN_ELEMENT_THEORY":"SGP4","CENTER_NAME":"EARTH","ELEMENT_SET_NO":"999","EPHEMERIS_TYPE":"0","MEAN_MOTION":"15.06373650","TLE_LINE2":"2 47658  53.0553 119.8384 0001824  88.9878 271.1320 15.06373650 84992","MEAN_ANOMALY":"271.1320","MEAN_MOTION_DOT":"0.00006580","OBJECT_TYPE":"PAYLOAD","FILE":"3545624","COUNTRY_CODE":"US","GP_ID":"210859562","ARG_OF_PERICENTER":"88.9878","RCS_SIZE":"LARGE","TLE_LINE1":"1 47658U 21012AQ  22235.86424633  .00006580  00000-0  46055-3 0  9998","LAUNCH_DATE":"2021-02-16","DECAY_DATE":null,"EPOCH":"2022-08-23T20:44:30.882912","NORAD_CAT_ID":"47658","REV_AT_EPOCH":"8499","ECCENTRICITY":"0.00018240","PERIOD":"95.594"},{"COUNTRY_CODE":"US","EPHEMERIS_TYPE":"0","MEAN_MOTION":"15.06394871","FILE":"3544231","OBJECT_TYPE":"PAYLOAD","MEAN_ANOMALY":"259.9731","TLE_LINE2":"2 47659  53.0550   2.9993 0001249 100.1399 259.9731 15.06394871 86028","MEAN_MOTION_DOT":"0.00001260","REV_AT_EPOCH":"8602","EPOCH":"2022-08-23T03:50:43.221408","NORAD_CAT_ID":"47659","DECAY_DATE":null,"PERIOD":"95.592","ECCENTRICITY":"0.00012490","GP_ID":"210781445","ARG_OF_PERICENTER":"100.1399","TLE_LINE1":"1 47659U 21012AR  22235.16022247  .00001260  00000-0  10349-3 0  9994","LAUNCH_DATE":"2021-02-16","RCS_SIZE":"LARGE","BSTAR":"0.00010349000000","MEAN_MOTION_DDOT":"0.0000000000000","SEMIMAJOR_AXIS":"6925.364","INCLINATION":"53.0550","SITE":"AFETR","TIME_SYSTEM":"UTC","REF_FRAME":"TEME","PERIAPSIS":"546.364","APOAPSIS":"548.094","ELEMENT_SET_NO":"999","MEAN_ELEMENT_THEORY":"SGP4","CENTER_NAME":"EARTH","OBJECT_NAME":"STARLINK-2043","OBJECT_ID":"2021-012AR","RA_OF_ASC_NODE":"2.9993","CLASSIFICATION_TYPE":"U"},{"EPHEMERIS_TYPE":"0","MEAN_MOTION":"15.06400157","FILE":"3545624","OBJECT_TYPE":"PAYLOAD","MEAN_ANOMALY":"263.2583","TLE_LINE2":"2 47660  53.0566 351.1567 0001363  96.8562 263.2583 15.06400157 86740","MEAN_MOTION_DOT":"0.00001431","COUNTRY_CODE":"US","GP_ID":"210860064","ARG_OF_PERICENTER":"96.8562","TLE_LINE1":"1 47660U 21012AS  22235.71042509  .00001431  00000-0  11497-3 0  9995","LAUNCH_DATE":"2021-02-16","RCS_SIZE":"LARGE","EPOCH":"2022-08-23T17:03:00.727776","NORAD_CAT_ID":"47660","REV_AT_EPOCH":"8674","DECAY_DATE":null,"PERIOD":"95.592","ECCENTRICITY":"0.00013630","TIME_SYSTEM":"UTC","BSTAR":"0.00011497000000","MEAN_MOTION_DDOT":"0.0000000000000","SEMIMAJOR_AXIS":"6925.348","INCLINATION":"53.0566","SITE":"AFETR","OBJECT_NAME":"STARLINK-2044","OBJECT_ID":"2021-012AS","RA_OF_ASC_NODE":"351.1567","CLASSIFICATION_TYPE":"U","REF_FRAME":"TEME","PERIAPSIS":"546.269","APOAPSIS":"548.157","ELEMENT_SET_NO":"999","MEAN_ELEMENT_THEORY":"SGP4","CENTER_NAME":"EARTH"},{"EPHEMERIS_TYPE":"0","MEAN_MOTION":"15.06395876","FILE":"3545624","OBJECT_TYPE":"PAYLOAD","MEAN_ANOMALY":"286.7317","TLE_LINE2":"2 47661  53.0546 100.2895 0001748  73.3864 286.7317 15.06395876 85226","MEAN_MOTION_DOT":"0.00002247","COUNTRY_CODE":"US","GP_ID":"210860307","ARG_OF_PERICENTER":"73.3864","TLE_LINE1":"1 47661U 21012AT  22235.76287320  .00002247  00000-0  16973-3 0  9993","LAUNCH_DATE":"2021-02-16","RCS_SIZE":"LARGE","EPOCH":"2022-08-23T18:18:32.244480","NORAD_CAT_ID":"47661","REV_AT_EPOCH":"8522","DECAY_DATE":null,"PERIOD":"95.592","ECCENTRICITY":"0.00017480","TIME_SYSTEM":"UTC","BSTAR":"0.00016973000000","MEAN_MOTION_DDOT":"0.0000000000000","SEMIMAJOR_AXIS":"6925.361","INCLINATION":"53.0546","SITE":"AFETR","OBJECT_NAME":"STARLINK-2051","OBJECT_ID":"2021-012AT","RA_OF_ASC_NODE":"100.2895","CLASSIFICATION_TYPE":"U","REF_FRAME":"TEME","APOAPSIS":"548.437","PERIAPSIS":"546.016","ELEMENT_SET_NO":"999","MEAN_ELEMENT_THEORY":"SGP4","CENTER_NAME":"EARTH"},{"ECCENTRICITY":"0.00014560","PERIOD":"95.593","DECAY_DATE":null,"REV_AT_EPOCH":"8526","EPOCH":"2022-08-23T21:01:43.509792","NORAD_CAT_ID":"47662","RCS_SIZE":"LARGE","LAUNCH_DATE":"2021-02-16","TLE_LINE1":"1 47662U 21012AU  22235.87619803  .00000952  00000-0  82822-4 0  9999","GP_ID":"210859063","ARG_OF_PERICENTER":"71.9610","COUNTRY_CODE":"US","MEAN_MOTION_DOT":"0.00000952","TLE_LINE2":"2 47662  53.0553  99.7857 0001456  71.9610 288.1537 15.06388974 85269","MEAN_ANOMALY":"288.1537","OBJECT_TYPE":"PAYLOAD","FILE":"3545624","MEAN_MOTION":"15.06388974","EPHEMERIS_TYPE":"0","CENTER_NAME":"EARTH","MEAN_ELEMENT_THEORY":"SGP4","ELEMENT_SET_NO":"999","PERIAPSIS":"546.239","APOAPSIS":"548.256","REF_FRAME":"TEME","CLASSIFICATION_TYPE":"U","RA_OF_ASC_NODE":"99.7857","OBJECT_NAME":"STARLINK-2052","OBJECT_ID":"2021-012AU","SITE":"AFETR","INCLINATION":"53.0553","SEMIMAJOR_AXIS":"6925.382","MEAN_MOTION_DDOT":"0.0000000000000","BSTAR":"0.00008282200000","TIME_SYSTEM":"UTC"},{"CLASSIFICATION_TYPE":"U","RA_OF_ASC_NODE":"20.9888","OBJECT_NAME":"STARLINK-2053","OBJECT_ID":"2021-012AV","CENTER_NAME":"EARTH","MEAN_ELEMENT_THEORY":"SGP4","ELEMENT_SET_NO":"999","APOAPSIS":"548.269","PERIAPSIS":"546.187","REF_FRAME":"TEME","TIME_SYSTEM":"UTC","SITE":"AFETR","INCLINATION":"53.0556","SEMIMAJOR_AXIS":"6925.363","MEAN_MOTION_DDOT":"0.0000000000000","BSTAR":"0.00009863600000","RCS_SIZE":"LARGE","LAUNCH_DATE":"2021-02-16","TLE_LINE1":"1 47663U 21012AV  22235.67445465  .00001188  00000-0  98636-4 0  9991","ARG_OF_PERICENTER":"81.5831","GP_ID":"210859311","ECCENTRICITY":"0.00015030","PERIOD":"95.592","DECAY_DATE":null,"EPOCH":"2022-08-23T16:11:12.881760","NORAD_CAT_ID":"47663","REV_AT_EPOCH":"8634","MEAN_MOTION_DOT":"0.00001188","MEAN_ANOMALY":"278.5328","TLE_LINE2":"2 47663  53.0556  20.9888 0001503  81.5831 278.5328 15.06395396 86345","FILE":"3545624","OBJECT_TYPE":"PAYLOAD","MEAN_MOTION":"15.06395396","EPHEMERIS_TYPE":"0","COUNTRY_CODE":"US"},{"MEAN_MOTION":"15.06405878","EPHEMERIS_TYPE":"0","MEAN_MOTION_DOT":"0.00004034","TLE_LINE2":"2 47664  53.0546  99.7821 0001504  81.3317 278.7842 15.06405878 85264","MEAN_ANOMALY":"278.7842","FILE":"3545624","OBJECT_TYPE":"PAYLOAD","COUNTRY_CODE":"US","GP_ID":"210860564","ARG_OF_PERICENTER":"81.3317","RCS_SIZE":"LARGE","LAUNCH_DATE":"2021-02-16","TLE_LINE1":"1 47664U 21012AW  22235.87714545  .00004034  00000-0  28949-3 0  9994","DECAY_DATE":null,"EPOCH":"2022-08-23T21:03:05.366880","NORAD_CAT_ID":"47664","REV_AT_EPOCH":"8526","ECCENTRICITY":"0.00015040","PERIOD":"95.592","TIME_SYSTEM":"UTC","SEMIMAJOR_AXIS":"6925.331","MEAN_MOTION_DDOT":"0.0000000000000","BSTAR":"0.00028949000000","SITE":"AFETR","INCLINATION":"53.0546","RA_OF_ASC_NODE":"99.7821","OBJECT_ID":"2021-012AW","OBJECT_NAME":"STARLINK-2054","CLASSIFICATION_TYPE":"U","PERIAPSIS":"546.154","APOAPSIS":"548.237","REF_FRAME":"TEME","CENTER_NAME":"EARTH","MEAN_ELEMENT_THEORY":"SGP4","ELEMENT_SET_NO":"999"},{"SEMIMAJOR_AXIS":"6925.380","BSTAR":"0.00014912000000","MEAN_MOTION_DDOT":"0.0000000000000","SITE":"AFETR","INCLINATION":"53.0557","TIME_SYSTEM":"UTC","REF_FRAME":"TEME","PERIAPSIS":"546.316","APOAPSIS":"548.173","MEAN_ELEMENT_THEORY":"SGP4","CENTER_NAME":"EARTH","ELEMENT_SET_NO":"999","OBJECT_ID":"2021-012AX","OBJECT_NAME":"STARLINK-2056","RA_OF_ASC_NODE":"95.5100","CLASSIFICATION_TYPE":"U","COUNTRY_CODE":"US","EPHEMERIS_TYPE":"0","MEAN_MOTION":"15.06389832","TLE_LINE2":"2 47665  53.0557  95.5100 0001341  95.5933 264.5209 15.06389832 85307","MEAN_ANOMALY":"264.5209","MEAN_MOTION_DOT":"0.00001940","FILE":"3545624","OBJECT_TYPE":"PAYLOAD","DECAY_DATE":null,"EPOCH":"2022-08-23T17:23:29.499072","NORAD_CAT_ID":"47665","REV_AT_EPOCH":"8530","ECCENTRICITY":"0.00013410","PERIOD":"95.593","GP_ID":"210860807","ARG_OF_PERICENTER":"95.5933","RCS_SIZE":"LARGE","TLE_LINE1":"1 47665U 21012AX  22235.72464698  .00001940  00000-0  14912-3 0  9998","LAUNCH_DATE":"2021-02-16"}];
